ONEWEB-0533             
1 55141U 23004B   26016.28802585  .00000150  00000+0  38041-3 0  9992
2 55141  87.8927  20.8258 0001909  85.1270 275.0077 13.12443006148135
ONEWEB-0541             
1 55142U 23004C   26016.04653023 -.00000428  00000+0 -12423-2 0  9993
2 55142  87.8831  51.3357 0001789 100.6252 259.5078 13.11418259146001
ONEWEB-0543             
1 55143U 23004D   26016.25907214  .00000084  00000+0  17967-3 0  9996
2 55143  87.9164   5.6527 0001639  77.1740 282.9576 13.18685732149675
ONEWEB-0544             
1 55144U 23004E   26016.25247668  .00000015  00000+0  46707-5 0  9997
2 55144  87.9174   5.6466 0001527  88.5369 271.5938 13.18686748149672
ONEWEB-0560             
1 55145U 23004F   26016.24587989  .00000040  00000+0  69012-4 0  9991
2 55145  87.9177   5.6362 0001536  85.7204 274.4104 13.18685835149682
ONEWEB-0565             
1 55146U 23004G   26016.01165137  .00000054  00000+0  10495-3 0  9999
2 55146  87.9163   5.7259 0001573 100.7765 259.3545 13.18685706149649
ONEWEB-0567             
1 55147U 23004H   26016.23268132  .00000100  00000+0  22075-3 0  9992
2 55147  87.9174   5.6514 0001479  95.6186 264.5115 13.18685724149673
ONEWEB-0569             
1 55148U 23004J   26016.18617865 -.00000224  00000+0 -64708-3 0  9996
2 55148  87.9009 350.4168 0000828  84.9768 275.1456 13.13470823150227
ONEWEB-0570             
1 55149U 23004K   26016.22278383  .00000017  00000+0  10945-4 0  9993
2 55149  87.9176   5.6525 0002059  99.7696 260.3669 13.18686649149669
ONEWEB-0571             
1 55150U 23004L   26016.21619508  .00000084  00000+0  18054-3 0  9994
2 55150  87.9173   5.6526 0001184 130.7871 229.3364 13.18686747149675
ONEWEB-0572             
1 55151U 23004M   26016.03950838  .00000100  00000+0  22463-3 0  9997
2 55151  87.9086  36.1081 0001710  97.6772 262.4554 13.17651065147446
ONEWEB-0573             
1 55152U 23004N   26016.20958590  .00000035  00000+0  55022-4 0  9995
2 55152  87.9172   5.6569 0001762 113.7694 246.3623 13.18687718149664
ONEWEB-0588             
1 55153U 23004P   26016.20298786  .00000046  00000+0  83486-4 0  9997
2 55153  87.9177   5.6568 0001956  99.7699 260.3655 13.18686417149668
ONEWEB-0598             
1 55154U 23004Q   26016.32968504  .00000035  00000+0  63445-4 0  9994
2 55154  87.8819  51.3040 0001256 108.0294 252.0971 13.11414474145998
ONEWEB-0599             
1 55155U 23004R   26016.30444030  .00000000  00000+0 -32769-4 0  9994
2 55155  87.9084  36.0554 0001614  90.5549 269.5768 13.17650809147483
ONEWEB-0614             
1 55156U 23004S   26016.32460399  .00000277  00000+0  74682-3 0  9997
2 55156  87.8818  51.3138 0002127  99.4432 260.6936 13.11414145145937
ONEWEB-0616             
1 55157U 23004T   26016.04288666  .00000074  00000+0  15684-3 0  9994
2 55157  87.9094  36.1025 0001584  59.9114 300.2175 13.17650558147669
