[{"OBJECT_NAME":"ONEWEB-0533","OBJECT_ID":"2023-004B","EPOCH":"2026-01-16T06:54:45.433440","MEAN_MOTION":13.12443006,"ECCENTRICITY":0.00019096,"INCLINATION":87.8927,"RA_OF_ASC_NODE":20.8258,"ARG_OF_PERICENTER":85.127,"MEAN_ANOMALY":275.0077,"EPHEMERIS_TYPE":0,"CLASSIFICATION_TYPE":"U","NORAD_CAT_ID":55141,"ELEMENT_SET_NO":999,"REV_AT_EPOCH":14813,"BSTAR":0.0003804132,"MEAN_MOTION_DOT":1.5e-6,"MEAN_MOTION_DDOT":0},{"OBJECT_NAME":"ONEWEB-0541","OBJECT_ID":"2023-004C","EPOCH":"2026-01-16T01:07:00.211872","MEAN_MOTION":13.11418259,"ECCENTRICITY":0.0001789,"INCLINATION":87.8831,"RA_OF_ASC_NODE":51.3357,"ARG_OF_PERICENTER":100.6252,"MEAN_ANOMALY":259.5078,"EPHEMERIS_TYPE":0,"CLASSIFICATION_TYPE":"U","NORAD_CAT_ID":55142,"ELEMENT_SET_NO":999,"REV_AT_EPOCH":14600,"BSTAR":-0.0012422694,"MEAN_MOTION_DOT":-4.28e-6,"MEAN_MOTION_DDOT":0},{"OBJECT_NAME":"ONEWEB-0543","OBJECT_ID":"2023-004D","EPOCH":"2026-01-16T06:13:03.832896","MEAN_MOTION":13.18685732,"ECCENTRICITY":0.00016393,"INCLINATION":87.9164,"RA_OF_ASC_NODE":5.6527,"ARG_OF_PERICENTER":77.174,"MEAN_ANOMALY":282.9576,"EPHEMERIS_TYPE":0,"CLASSIFICATION_TYPE":"U","NORAD_CAT_ID":55143,"ELEMENT_SET_NO":999,"REV_AT_EPOCH":14967,"BSTAR":0.00017967252,"MEAN_MOTION_DOT":8.4e-7,"MEAN_MOTION_DDOT":0},{"OBJECT_NAME":"ONEWEB-0544","OBJECT_ID":"2023-004E","EPOCH":"2026-01-16T06:03:33.985152","MEAN_MOTION":13.18686748,"ECCENTRICITY":0.00015275,"INCLINATION":87.9174,"RA_OF_ASC_NODE":5.6466,"ARG_OF_PERICENTER":88.5369,"MEAN_ANOMALY":271.5938,"EPHEMERIS_TYPE":0,"CLASSIFICATION_TYPE":"U","NORAD_CAT_ID":55144,"ELEMENT_SET_NO":999,"REV_AT_EPOCH":14967,"BSTAR":4.670746e-6,"MEAN_MOTION_DOT":1.5e-7,"MEAN_MOTION_DDOT":0},{"OBJECT_NAME":"ONEWEB-0560","OBJECT_ID":"2023-004F","EPOCH":"2026-01-16T05:54:04.022496","MEAN_MOTION":13.18685835,"ECCENTRICITY":0.00015364,"INCLINATION":87.9177,"RA_OF_ASC_NODE":5.6362,"ARG_OF_PERICENTER":85.7204,"MEAN_ANOMALY":274.4104,"EPHEMERIS_TYPE":0,"CLASSIFICATION_TYPE":"U","NORAD_CAT_ID":55145,"ELEMENT_SET_NO":999,"REV_AT_EPOCH":14968,"BSTAR":6.9011787e-5,"MEAN_MOTION_DOT":4.0e-7,"MEAN_MOTION_DDOT":0},{"OBJECT_NAME":"ONEWEB-0565","OBJECT_ID":"2023-004G","EPOCH":"2026-01-16T00:16:46.678368","MEAN_MOTION":13.18685706,"ECCENTRICITY":0.00015731,"INCLINATION":87.9163,"RA_OF_ASC_NODE":5.7259,"ARG_OF_PERICENTER":100.7765,"MEAN_ANOMALY":259.3545,"EPHEMERIS_TYPE":0,"CLASSIFICATION_TYPE":"U","NORAD_CAT_ID":55146,"ELEMENT_SET_NO":999,"REV_AT_EPOCH":14964,"BSTAR":0.00010495263,"MEAN_MOTION_DOT":5.4e-7,"MEAN_MOTION_DDOT":0},{"OBJECT_NAME":"ONEWEB-0567","OBJECT_ID":"2023-004H","EPOCH":"2026-01-16T05:35:03.666048","MEAN_MOTION":13.18685724,"ECCENTRICITY":0.00014794,"INCLINATION":87.9174,"RA_OF_ASC_NODE":5.6514,"ARG_OF_PERICENTER":95.6186,"MEAN_ANOMALY":264.5115,"EPHEMERIS_TYPE":0,"CLASSIFICATION_TYPE":"U","NORAD_CAT_ID":55147,"ELEMENT_SET_NO":999,"REV_AT_EPOCH":14967,"BSTAR":0.00022075067,"MEAN_MOTION_DOT":1.0e-6,"MEAN_MOTION_DDOT":0},{"OBJECT_NAME":"ONEWEB-0569","OBJECT_ID":"2023-004J","EPOCH":"2026-01-16T04:28:05.835360","MEAN_MOTION":13.13470823,"ECCENTRICITY":8.282e-5,"INCLINATION":87.9009,"RA_OF_ASC_NODE":350.4168,"ARG_OF_PERICENTER":84.9768,"MEAN_ANOMALY":275.1456,"EPHEMERIS_TYPE":0,"CLASSIFICATION_TYPE":"U","NORAD_CAT_ID":55148,"ELEMENT_SET_NO":999,"REV_AT_EPOCH":15022,"BSTAR":-0.00064708461,"MEAN_MOTION_DOT":-2.24e-6,"MEAN_MOTION_DDOT":0},{"OBJECT_NAME":"ONEWEB-0570","OBJECT_ID":"2023-004K","EPOCH":"2026-01-16T05:20:48.522912","MEAN_MOTION":13.18686649,"ECCENTRICITY":0.00020591,"INCLINATION":87.9176,"RA_OF_ASC_NODE":5.6525,"ARG_OF_PERICENTER":99.7696,"MEAN_ANOMALY":260.3669,"EPHEMERIS_TYPE":0,"CLASSIFICATION_TYPE":"U","NORAD_CAT_ID":55149,"ELEMENT_SET_NO":999,"REV_AT_EPOCH":14966,"BSTAR":1.0945465e-5,"MEAN_MOTION_DOT":1.7e-7,"MEAN_MOTION_DDOT":0},{"OBJECT_NAME":"ONEWEB-0571","OBJECT_ID":"2023-004L","EPOCH":"2026-01-16T05:11:19.254912","MEAN_MOTION":13.18686747,"ECCENTRICITY":0.00011848,"INCLINATION":87.9173,"RA_OF_ASC_NODE":5.6526,"ARG_OF_PERICENTER":130.7871,"MEAN_ANOMALY":229.3364,"EPHEMERIS_TYPE":0,"CLASSIFICATION_TYPE":"U","NORAD_CAT_ID":55150,"ELEMENT_SET_NO":999,"REV_AT_EPOCH":14967,"BSTAR":0.00018053889,"MEAN_MOTION_DOT":8.4e-7,"MEAN_MOTION_DDOT":0},{"OBJECT_NAME":"ONEWEB-0572","OBJECT_ID":"2023-004M","EPOCH":"2026-01-16T00:56:53.524032","MEAN_MOTION":13.17651065,"ECCENTRICITY":0.00017108,"INCLINATION":87.9086,"RA_OF_ASC_NODE":36.1081,"ARG_OF_PERICENTER":97.6772,"MEAN_ANOMALY":262.4554,"EPHEMERIS_TYPE":0,"CLASSIFICATION_TYPE":"U","NORAD_CAT_ID":55151,"ELEMENT_SET_NO":999,"REV_AT_EPOCH":14744,"BSTAR":0.00022462924,"MEAN_MOTION_DOT":1.0e-6,"MEAN_MOTION_DDOT":0},{"OBJECT_NAME":"ONEWEB-0573","OBJECT_ID":"2023-004N","EPOCH":"2026-01-16T05:01:48.221760","MEAN_MOTION":13.18687718,"ECCENTRICITY":0.00017626,"INCLINATION":87.9172,"RA_OF_ASC_NODE":5.6569,"ARG_OF_PERICENTER":113.7694,"MEAN_ANOMALY":246.3623,"EPHEMERIS_TYPE":0,"CLASSIFICATION_TYPE":"U","NORAD_CAT_ID":55152,"ELEMENT_SET_NO":999,"REV_AT_EPOCH":14966,"BSTAR":5.5022445e-5,"MEAN_MOTION_DOT":3.5e-7,"MEAN_MOTION_DDOT":0},{"OBJECT_NAME":"ONEWEB-0588","OBJECT_ID":"2023-004P","EPOCH":"2026-01-16T04:52:18.151104","MEAN_MOTION":13.18686417,"ECCENTRICITY":0.00019569,"INCLINATION":87.9177,"RA_OF_ASC_NODE":5.6568,"ARG_OF_PERICENTER":99.7699,"MEAN_ANOMALY":260.3655,"EPHEMERIS_TYPE":0,"CLASSIFICATION_TYPE":"U","NORAD_CAT_ID":55153,"ELEMENT_SET_NO":999,"REV_AT_EPOCH":14966,"BSTAR":8.3485664e-5,"MEAN_MOTION_DOT":4.6e-7,"MEAN_MOTION_DDOT":0},{"OBJECT_NAME":"ONEWEB-0598","OBJECT_ID":"2023-004Q","EPOCH":"2026-01-16T07:54:44.787456","MEAN_MOTION":13.11414474,"ECCENTRICITY":0.00012567,"INCLINATION":87.8819,"RA_OF_ASC_NODE":51.304,"ARG_OF_PERICENTER":108.0294,"MEAN_ANOMALY":252.0971,"EPHEMERIS_TYPE":0,"CLASSIFICATION_TYPE":"U","NORAD_CAT_ID":55154,"ELEMENT_SET_NO":999,"REV_AT_EPOCH":14599,"BSTAR":6.3445476e-5,"MEAN_MOTION_DOT":3.5e-7,"MEAN_MOTION_DDOT":0},{"OBJECT_NAME":"ONEWEB-0599","OBJECT_ID":"2023-004R","EPOCH":"2026-01-16T07:18:23.641920","MEAN_MOTION":13.17650809,"ECCENTRICITY":0.00016144,"INCLINATION":87.9084,"RA_OF_ASC_NODE":36.0554,"ARG_OF_PERICENTER":90.5549,"MEAN_ANOMALY":269.5768,"EPHEMERIS_TYPE":0,"CLASSIFICATION_TYPE":"U","NORAD_CAT_ID":55155,"ELEMENT_SET_NO":999,"REV_AT_EPOCH":14748,"BSTAR":-3.2769126e-5,"MEAN_MOTION_DOT":0,"MEAN_MOTION_DDOT":0},{"OBJECT_NAME":"ONEWEB-0614","OBJECT_ID":"2023-004S","EPOCH":"2026-01-16T07:47:25.784736","MEAN_MOTION":13.11414145,"ECCENTRICITY":0.00021272,"INCLINATION":87.8818,"RA_OF_ASC_NODE":51.3138,"ARG_OF_PERICENTER":99.4432,"MEAN_ANOMALY":260.6936,"EPHEMERIS_TYPE":0,"CLASSIFICATION_TYPE":"U","NORAD_CAT_ID":55156,"ELEMENT_SET_NO":999,"REV_AT_EPOCH":14593,"BSTAR":0.00074681687,"MEAN_MOTION_DOT":2.77e-6,"MEAN_MOTION_DDOT":0},{"OBJECT_NAME":"ONEWEB-0616","OBJECT_ID":"2023-004T","EPOCH":"2026-01-16T01:01:45.407424","MEAN_MOTION":13.17650558,"ECCENTRICITY":0.00015848,"INCLINATION":87.9094,"RA_OF_ASC_NODE":36.1025,"ARG_OF_PERICENTER":59.9114,"MEAN_ANOMALY":300.2175,"EPHEMERIS_TYPE":0,"CLASSIFICATION_TYPE":"U","NORAD_CAT_ID":55157,"ELEMENT_SET_NO":999,"REV_AT_EPOCH":14766,"BSTAR":0.00015684059,"MEAN_MOTION_DOT":7.4e-7,"MEAN_MOTION_DDOT":0}]
